{
    "links": {
        "self": "http://www.neowsapp.com/rest/v1/neo/3576890?api_key=iIulBulltgU6a56xZRHN4H3l9WmuAYTsLGpBGhQ2"
    },
    "id": "3576890",
    "neo_reference_id": "3576890",
    "name": "(2011 QU37)",
    "designation": "2011 QU37",
    "nasa_jpl_url": "http://ssd.jpl.nasa.gov/sbdb.cgi?sstr=3576890",
    "absolute_magnitude_h": 23.6,
    "estimated_diameter": {
        "kilometers": {
            "estimated_diameter_min": 0.0506471459,
            "estimated_diameter_max": 0.1132504611
        },
        "meters": {
            "estimated_diameter_min": 50.6471458835,
            "estimated_diameter_max": 113.2504610618
        },
        "miles": {
            "estimated_diameter_min": 0.0314706677,
            "estimated_diameter_max": 0.0703705522
        },
        "feet": {
            "estimated_diameter_min": 166.1651821003,
            "estimated_diameter_max": 371.5566426699
        }
    },
    "is_potentially_hazardous_asteroid": false,
    "close_approach_data": [
        {
            "close_approach_date": "2011-06-24",
            "close_approach_date_full": "2011-Jun-24 01:42",
            "epoch_date_close_approach": 1308879720000,
            "relative_velocity": {
                "kilometers_per_second": "5.853739864",
                "kilometers_per_hour": "21073.4635105498",
                "miles_per_hour": "13094.2307018747"
            },
            "miss_distance": {
                "astronomical": "0.1273996901",
                "lunar": "49.5584794489",
                "kilometers": "19058722.277620087",
                "miles": "11842540.8773957206"
            },
            "orbiting_body": "Earth"
        }
    ],
    "orbital_data": {
        "orbit_id": "5",
        "orbit_determination_date": "2017-04-06 08:52:56",
        "first_observation_date": "2011-08-24",
        "last_observation_date": "2011-08-29",
        "data_arc_in_days": 5,
        "observations_used": 8,
        "orbit_uncertainty": "9",
        "minimum_orbit_intersection": ".115101",
        "jupiter_tisserand_invariant": "3.515",
        "epoch_osculation": "2455798.5",
        "eccentricity": ".4920356954221796",
        "semi_major_axis": "2.174627246438362",
        "inclination": "4.168435068557661",
        "ascending_node_longitude": "355.5873626876928",
        "orbital_period": "1171.320285127218",
        "perihelion_distance": "1.104633016953043",
        "perihelion_argument": "284.1162946244971",
        "aphelion_distance": "3.244621475923681",
        "perihelion_time": "2455741.384364128652",
        "mean_anomaly": "17.55423275321494",
        "mean_motion": ".3073454840414551",
        "equinox": "J2000",
        "orbit_class": {
            "orbit_class_type": "AMO",
            "orbit_class_description": "Near-Earth asteroid orbits similar to that of 1221 Amor",
            "orbit_class_range": "1.017 AU < q (perihelion) < 1.3 AU"
        }
    },
    "is_sentry_object": false
}